[{"OBJECT_NAME":"STARLINK-30549","OBJECT_ID":"2023-156C","EPOCH":"2026-03-09T07:11:13.084800","MEAN_MOTION":15.30189988,"ECCENTRICITY":0.0001423,"INCLINATION":53.1601,"RA_OF_ASC_NODE":80.1921,"ARG_OF_PERICENTER":83.2302,"MEAN_ANOMALY":276.8861,"EPHEMERIS_TYPE":0,"CLASSIFICATION_TYPE":"U","NORAD_CAT_ID":58030,"ELEMENT_SET_NO":999,"REV_AT_EPOCH":13620,"BSTAR":1.536479e-5,"MEAN_MOTION_DOT":9.6e-7,"MEAN_MOTION_DDOT":0},{"OBJECT_NAME":"CZ-4B DEB","OBJECT_ID":"2010-051E","EPOCH":"2026-03-08T22:01:50.125728","MEAN_MOTION":15.23766972,"ECCENTRICITY":0.00561086,"INCLINATION":97.769,"RA_OF_ASC_NODE":240.5013,"ARG_OF_PERICENTER":301.1291,"MEAN_ANOMALY":58.4449,"EPHEMERIS_TYPE":0,"CLASSIFICATION_TYPE":"U","NORAD_CAT_ID":38184,"ELEMENT_SET_NO":999,"REV_AT_EPOCH":82066,"BSTAR":0.0024566319,"MEAN_MOTION_DOT":0.00062123,"MEAN_MOTION_DDOT":0}]
